{"type": "FeatureCollection", "features": [ {"type": "Feature", "properties": {"norad_id": 35647, "name": "COSMOS 2251 DEB", "group": "cosmos-2251-debris", "lat": 47.07593834900113, "lon": 106.71707946647417, "alt_km": 739.2898007398244, "timestamp": "2025-12-07T07:31:36.694378+00:00", "meta": {"OBJECT_NAME": "COSMOS 2251 DEB", "OBJECT_ID": "1993-036ANN", "EPOCH": "2025-12-06T04:19:05.390400", "MEAN_MOTION": 14.4357388, "ECCENTRICITY": 0.0045144, "INCLINATION": 74.0229, "RA_OF_ASC_NODE": 306.7667, "ARG_OF_PERICENTER": 47.5691, "MEAN_ANOMALY": 312.927, "EPHEMERIS_TYPE": 0, "CLASSIFICATION_TYPE": "U", "NORAD_CAT_ID": 35647, "ELEMENT_SET_NO": 999, "REV_AT_EPOCH": 67569, "BSTAR": 0.0014529978, "MEAN_MOTION_DOT": 4.961e-05, "MEAN_MOTION_DDOT": 0}, "tle": {"line1": "1 35647U 93036ANN 25340.17992350  .00004961  00000+0  14530-2 0  9990", "line2": "2 35647  74.0229 306.7667 0045144  47.5691 312.9270 14.43573880675696"}}, "geometry": {"type": "Point", "coordinates": [106.71707946647417, 47.07593834900113]}}, {"type": "Feature", "properties": {"norad_id": 35650, "name": "COSMOS 2251 DEB", "group": "cosmos-2251-debris", "lat": -58.92308113378311, "lon": -122.04393666375394, "alt_km": 635.0177338563217, "timestamp": "2025-12-07T07:31:36.694388+00:00", "meta": {"OBJECT_NAME": "COSMOS 2251 DEB", "OBJECT_ID": "1993-036ANR", "EPOCH": "2025-12-06T21:29:55.975200", "MEAN_MOTION": 14.83394594, "ECCENTRICITY": 0.00144658, "INCLINATION": 74.0458, "RA_OF_ASC_NODE": 30.4453, "ARG_OF_PERICENTER": 81.0618, "MEAN_ANOMALY": 91.4163, "EPHEMERIS_TYPE": 0, "CLASSIFICATION_TYPE": "U", "NORAD_CAT_ID": 35650, "ELEMENT_SET_NO": 999, "REV_AT_EPOCH": 87547, "BSTAR": 0.0025289814, "MEAN_MOTION_DOT": 0.0002082, "MEAN_MOTION_DDOT": 0}, "tle": {"line1": "1 35650U 93036ANR 25340.89578675  .00020820  00000+0  25290-2 0  9990", "line2": "2 35650  74.0458  30.4453 0014465  81.0618  91.4163 14.83394594875477"}}, "geometry": {"type": "Point", "coordinates": [-122.04393666375394, -58.92308113378311]}}, {"type": "Feature", "properties": {"norad_id": 35660, "name": "COSMOS 2251 DEB", "group": "cosmos-2251-debris", "lat": 60.090172269702, "lon": -66.41974454010723, "alt_km": 732.794954023876, "timestamp": "2025-12-07T07:31:36.694398+00:00", "meta": {"OBJECT_NAME": "COSMOS 2251 DEB", "OBJECT_ID": "1993-036APB", "EPOCH": "2025-12-06T05:18:17.773056", "MEAN_MOTION": 14.49891822, "ECCENTRICITY": 0.00183215, "INCLINATION": 74.0388, "RA_OF_ASC_NODE": 145.4664, "ARG_OF_PERICENTER": 294.6596, "MEAN_ANOMALY": 240.4039, "EPHEMERIS_TYPE": 0, "CLASSIFICATION_TYPE": "U", "NORAD_CAT_ID": 35660, "ELEMENT_SET_NO": 999, "REV_AT_EPOCH": 65776, "BSTAR": 0.00076820302, "MEAN_MOTION_DOT": 2.948e-05, "MEAN_MOTION_DDOT": 0}, "tle": {"line1": "1 35660U 93036APB 25340.22103904  .00002948  00000+0  76820-3 0  9994", "line2": "2 35660  74.0388 145.4664 0018321 294.6596 240.4039 14.49891822657769"}}, "geometry": {"type": "Point", "coordinates": [-66.41974454010723, 60.090172269702]}}, {"type": "Feature", "properties": {"norad_id": 35661, "name": "COSMOS 2251 DEB", "group": "cosmos-2251-debris", "lat": 58.206641864615975, "lon": -117.00289394891804, "alt_km": 590.0116537690901, "timestamp": "2025-12-07T07:31:36.694408+00:00", "meta": {"OBJECT_NAME": "COSMOS 2251 DEB", "OBJECT_ID": "1993-036APC", "EPOCH": "2025-12-05T14:36:34.984800", "MEAN_MOTION": 14.86364336, "ECCENTRICITY": 0.0088867, "INCLINATION": 74.0135, "RA_OF_ASC_NODE": 93.941, "ARG_OF_PERICENTER": 199.9013, "MEAN_ANOMALY": 159.8694, "EPHEMERIS_TYPE": 0, "CLASSIFICATION_TYPE": "U", "NORAD_CAT_ID": 35661, "ELEMENT_SET_NO": 999, "REV_AT_EPOCH": 87762, "BSTAR": 0.0019197876, "MEAN_MOTION_DOT": 0.00018202, "MEAN_MOTION_DDOT": 0}, "tle": {"line1": "1 35661U 93036APC 25339.60873825  .00018202  00000+0  19198-2 0  9995", "line2": "2 35661  74.0135  93.9410 0088867 199.9013 159.8694 14.86364336877624"}}, "geometry": {"type": "Point", "coordinates": [-117.00289394891804, 58.206641864615975]}}, {"type": "Feature", "properties": {"norad_id": 35663, "name": "COSMOS 2251 DEB", "group": "cosmos-2251-debris", "lat": 48.7740802571499, "lon": 154.2198344411954, "alt_km": 675.5738200646429, "timestamp": "2025-12-07T07:31:36.694418+00:00", "meta": {"OBJECT_NAME": "COSMOS 2251 DEB", "OBJECT_ID": "1993-036APE", "EPOCH": "2025-11-30T11:26:45.384288", "MEAN_MOTION": 14.65332391, "ECCENTRICITY": 0.00074535, "INCLINATION": 74.0171, "RA_OF_ASC_NODE": 148.2949, "ARG_OF_PERICENTER": 219.2944, "MEAN_ANOMALY": 140.7685, "EPHEMERIS_TYPE": 0, "CLASSIFICATION_TYPE": "U", "NORAD_CAT_ID": 35663, "ELEMENT_SET_NO": 999, "REV_AT_EPOCH": 73202, "BSTAR": 0.0015821861, "MEAN_MOTION_DOT": 8.525e-05, "MEAN_MOTION_DDOT": 0}, "tle": {"line1": "1 35663U 93036APE 25334.47691417  .00008525  00000+0  15822-2 0  9999", "line2": "2 35663  74.0171 148.2949 0007453 219.2944 140.7685 14.65332391732024"}}, "geometry": {"type": "Point", "coordinates": [154.2198344411954, 48.7740802571499]}}, {"type": "Feature", "properties": {"norad_id": 35667, "name": "COSMOS 2251 DEB", "group": "cosmos-2251-debris", "lat": -28.907038396032256, "lon": -20.46525996657168, "alt_km": 684.5115425639033, "timestamp": "2025-12-07T07:31:36.694428+00:00", "meta": {"OBJECT_NAME": "COSMOS 2251 DEB", "OBJECT_ID": "1993-036APJ", "EPOCH": "2025-12-03T05:32:00.225024", "MEAN_MOTION": 14.59863315, "ECCENTRICITY": 0.0020461, "INCLINATION": 74.0542, "RA_OF_ASC_NODE": 158.2289, "ARG_OF_PERICENTER": 220.1527, "MEAN_ANOMALY": 139.8128, "EPHEMERIS_TYPE": 0, "CLASSIFICATION_TYPE": "U", "NORAD_CAT_ID": 35667, "ELEMENT_SET_NO": 999, "REV_AT_EPOCH": 70664, "BSTAR": 0.0013542, "MEAN_MOTION_DOT": 6.475e-05, "MEAN_MOTION_DDOT": 0}, "tle": {"line1": "1 35667U 93036APJ 25337.23055816  .00006475  00000+0  13542-2 0  9996", "line2": "2 35667  74.0542 158.2289 0020461 220.1527 139.8128 14.59863315706648"}}, "geometry": {"type": "Point", "coordinates": [-20.46525996657168, -28.907038396032256]}}, {"type": "Feature", "properties": {"norad_id": 35668, "name": "COSMOS 2251 DEB", "group": "cosmos-2251-debris", "lat": -60.838036479548364, "lon": 81.77844436960922, "alt_km": 688.8297700211306, "timestamp": "2025-12-07T07:31:36.694448+00:00", "meta": {"OBJECT_NAME": "COSMOS 2251 DEB", "OBJECT_ID": "1993-036APK", "EPOCH": "2025-12-06T09:05:00.792096", "MEAN_MOTION": 14.63958506, "ECCENTRICITY": 0.0083061, "INCLINATION": 74.0458, "RA_OF_ASC_NODE": 232.7313, "ARG_OF_PERICENTER": 339.3101, "MEAN_ANOMALY": 20.4709, "EPHEMERIS_TYPE": 0, "CLASSIFICATION_TYPE": "U", "NORAD_CAT_ID": 35668, "ELEMENT_SET_NO": 999, "REV_AT_EPOCH": 87554, "BSTAR": 0.00057387566, "MEAN_MOTION_DOT": 3.128e-05, "MEAN_MOTION_DDOT": 0}, "tle": {"line1": "1 35668U 93036APK 25340.37848139  .00003128  00000+0  57388-3 0  9993", "line2": "2 35668  74.0458 232.7313 0083061 339.3101  20.4709 14.63958506875545"}}, "geometry": {"type": "Point", "coordinates": [81.77844436960922, -60.838036479548364]}}, {"type": "Feature", "properties": {"norad_id": 35669, "name": "COSMOS 2251 DEB", "group": "cosmos-2251-debris", "lat": 32.210578389599114, "lon": -22.31786923559241, "alt_km": 1241.2355825129453, "timestamp": "2025-12-07T07:31:36.694461+00:00", "meta": {"OBJECT_NAME": "COSMOS 2251 DEB", "OBJECT_ID": "1993-036APL", "EPOCH": "2025-12-03T21:23:42.149184", "MEAN_MOTION": 13.57134195, "ECCENTRICITY": 0.0387239, "INCLINATION": 73.852, "RA_OF_ASC_NODE": 173.7821, "ARG_OF_PERICENTER": 287.3475, "MEAN_ANOMALY": 68.5633, "EPHEMERIS_TYPE": 0, "CLASSIFICATION_TYPE": "U", "NORAD_CAT_ID": 35669, "ELEMENT_SET_NO": 999, "REV_AT_EPOCH": 60669, "BSTAR": 0.0017031, "MEAN_MOTION_DOT": 1.95e-05, "MEAN_MOTION_DDOT": 0}, "tle": {"line1": "1 35669U 93036APL 25337.89146006  .00001950  00000+0  17031-2 0  9992", "line2": "2 35669  73.8520 173.7821 0387239 287.3475  68.5633 13.57134195606690"}}, "geometry": {"type": "Point", "coordinates": [-22.31786923559241, 32.210578389599114]}}, {"type": "Feature", "properties": {"norad_id": 35670, "name": "COSMOS 2251 DEB", "group": "cosmos-2251-debris", "lat": -47.00946886223553, "lon": 57.45272239066542, "alt_km": 591.957724445223, "timestamp": "2025-12-07T07:31:36.694471+00:00", "meta": {"OBJECT_NAME": "COSMOS 2251 DEB", "OBJECT_ID": "1993-036APM", "EPOCH": "2025-12-03T00:51:50.152032", "MEAN_MOTION": 14.93482129, "ECCENTRICITY": 0.00369334, "INCLINATION": 73.8945, "RA_OF_ASC_NODE": 84.1864, "ARG_OF_PERICENTER": 48.0359, "MEAN_ANOMALY": 312.396, "EPHEMERIS_TYPE": 0, "CLASSIFICATION_TYPE": "U", "NORAD_CAT_ID": 35670, "ELEMENT_SET_NO": 999, "REV_AT_EPOCH": 87582, "BSTAR": 0.001906882, "MEAN_MOTION_DOT": 0.00020358, "MEAN_MOTION_DDOT": 0}, "tle": {"line1": "1 35670U 93036APM 25337.03599713  .00020358  00000+0  19069-2 0  9993", "line2": "2 35670  73.8945  84.1864 0036933  48.0359 312.3960 14.93482129875820"}}, "geometry": {"type": "Point", "coordinates": [57.45272239066542, -47.00946886223553]}}, {"type": "Feature", "properties": {"norad_id": 35671, "name": "COSMOS 2251 DEB", "group": "cosmos-2251-debris", "lat": -16.50713496956973, "lon": -85.638864425346, "alt_km": 724.1166082083801, "timestamp": "2025-12-07T07:31:36.694482+00:00", "meta": {"OBJECT_NAME": "COSMOS 2251 DEB", "OBJECT_ID": "1993-036APN", "EPOCH": "2025-12-06T14:08:17.871072", "MEAN_MOTION": 14.48331693, "ECCENTRICITY": 0.00415098, "INCLINATION": 74.0176, "RA_OF_ASC_NODE": 90.8468, "ARG_OF_PERICENTER": 265.9421, "MEAN_ANOMALY": 115.4447, "EPHEMERIS_TYPE": 0, "CLASSIFICATION_TYPE": "U", "NORAD_CAT_ID": 35671, "ELEMENT_SET_NO": 999, "REV_AT_EPOCH": 86674, "BSTAR": 0.00044501062, "MEAN_MOTION_DOT": 1.654e-05, "MEAN_MOTION_DDOT": 0}, "tle": {"line1": "1 35671U 93036APN 25340.58909573  .00001654  00000+0  44501-3 0  9995", "line2": "2 35671  74.0176  90.8468 0041509 265.9421 115.4447 14.48331693866741"}}, "geometry": {"type": "Point", "coordinates": [-85.638864425346, -16.50713496956973]}}]}